OSCAR 7 (AO-7)          
1 07530U 74089B   20319.43773275 -.00000043  00000-0  15998-4 0  9990
2 07530 101.8228 288.4503 0012519  75.1084  39.1927 12.53646115104787
UOSAT 2 (UO-11)         
1 14781U 84021B   20319.59876968  .00000171  00000-0  26980-4 0  9997
2 14781  97.5900 324.1031 0009889  71.3980 288.8307 14.83209864954086
LUSAT (LO-19)           
1 20442U 90005G   20319.14828223  .00000007  00000-0  19148-4 0  9995
2 20442  98.7109 267.0219 0012842  75.5944 284.6664 14.32966309609998
EYESAT A (AO-27)        
1 22825U 93061C   20318.95818895  .00000007  00000-0  20718-4 0  9994
2 22825  98.9258 325.1952 0007585 306.3878  53.6603 14.30097402415181
ITAMSAT (IO-26)         
1 22826U 93061D   20318.90950068  .00000012  00000-0  22638-4 0  9998
2 22826  98.9199 325.0756 0007995 292.7235  67.3101 14.30434317415418
RADIO ROSTO (RS-15)     
1 23439U 94085A   20319.62944256 -.00000037  00000-0  15882-3 0  9998
2 23439  64.8199   3.3916 0153308  14.1051 346.4084 11.27569067 66111
JAS-2 (FO-29)           
1 24278U 96046B   20319.12565257 -.00000027  00000-0  10239-4 0  9995
2 24278  98.5891  49.4054 0350086 347.5135  11.7495 13.53100403197128
TECHSAT 1B (GO-32)      
1 25397U 98043D   20319.35191559 -.00000015  00000-0  12893-4 0  9997
2 25397  98.7441 259.8020 0001519  30.3276 329.7990 14.23694445160888
ISS (ZARYA)             
1 25544U 98067A   20319.60372921 -.00000214  00000-0  42508-5 0  9997
2 25544  51.6460 324.1836 0001703  53.0229 101.8415 15.49028209255331
PCSAT (NO-44)           
1 26931U 01043C   20318.85138486 -.00000033  00000-0  19162-4 0  9996
2 26931  67.0497 116.8510 0006904 275.3382  84.6932 14.30594316998449
SAUDISAT 1C (SO-50)     
1 27607U 02058C   20319.13975991  .00000034  00000-0  25278-4 0  9991
2 27607  64.5552 276.7094 0031580 121.6951 238.7238 14.75677479962803
CUTE-1 (CO-55)          
1 27844U 03031E   20318.92748520  .00000077  00000-0  54238-4 0  9993
2 27844  98.6825 324.4115 0009642 349.0607  11.0360 14.22267562901340
CUBESAT XI-IV (CO-57)   
1 27848U 03031J   20319.27921201  .00000060  00000-0  46943-4 0  9991
2 27848  98.6889 325.3246 0009706   1.0754 359.0442 14.21850674901233
MOZHAYETS 4 (RS-22)     
1 27939U 03042A   20319.59041806  .00000171  00000-0  39271-4 0  9992
2 27939  98.1107  92.6108 0011989 235.3418 124.6696 14.66905063916020
CUBESAT XI-V            
1 28895U 05043F   20319.11462366  .00000192  00000-0  45710-4 0  9991
2 28895  98.0312  91.4711 0017193 164.9771 195.1946 14.63822706802505
CUTE-1.7+APD II (CO-65) 
1 32785U 08021C   20319.10440464  .00000394  00000-0  47969-4 0  9999
2 32785  97.5882 300.6582 0013086   3.9436 356.1882 14.88552687680138
DELFI-C3 (DO-64)        
1 32789U 08021G   20319.37321355  .00001939  00000-0  12939-3 0  9993
2 32789  97.4027 356.8338 0012696 155.2422 204.9418 15.08110314684405
SEEDS II (CO-66)        
1 32791U 08021J   20318.97958618  .00000654  00000-0  71162-4 0  9996
2 32791  97.5525 306.6228 0012478 330.4309  29.6203 14.91164077680666
YUBILEINY (RS-30)       
1 32953U 08025A   20319.57904248  .00000028  00000-0  12906-3 0  9992
2 32953  82.5040 184.5579 0019849  84.9652 275.3691 12.43098865566283
KKS-1 (KISEKI)          
1 33499U 09002H   20319.11124750  .00000155  00000-0  30643-4 0  9996
2 33499  98.2952 177.8859 0009424  15.7347 344.4153 14.75578005634656
SWISSCUBE               
1 35932U 09051B   20318.78035900  .00000187  00000-0  53167-4 0  9995
2 35932  98.6091 145.8948 0008201  35.9001 324.2745 14.56446276591563
BEESAT-1                
1 35933U 09051C   20319.09878022  .00000148  00000-0  44276-4 0  9999
2 35933  98.6073 148.0878 0006597  48.4952 311.6810 14.56515423591688
ITUPSAT1                
1 35935U 09051E   20318.97531069  .00000115  00000-0  37538-4 0  9991
2 35935  98.6178 148.1379 0008873  47.0848 313.1092 14.55655811591427
XIWANG-1 (HOPE-1)       
1 36122U 09072B   20319.58989256 -.00000070  00000-0 -73265-4 0  9995
2 36122 100.1069 303.4179 0006801 237.0493 122.9967 13.16357004524628
JUGNU                   
1 37839U 11058B   20319.11592905  .00000321  00000-0  29224-4 0  9991
2 37839  19.9609  95.1377 0018790 238.5365 278.5857 14.12694584469976
SRMSAT                  
1 37841U 11058D   20318.90767830  .00000285  00000-0  11573-4 0  9998
2 37841  19.9704 163.8250 0011901  85.9778  40.5171 14.10678084469260
M-CUBED & EXP-1 PRIME   
1 37855U 11061F   20319.21080573  .00001469  00000-0  79268-4 0  9994
2 37855 101.7278 124.9762 0169655 350.3643   9.4329 15.06727611493754
STRAND-1                
1 39090U 13009E   20319.11606388  .00000058  00000-0  35186-4 0  9992
2 39090  98.4413 160.1883 0008776 192.9168 167.1794 14.35152708404158
SOMP                    
1 39134U 13015E   20318.93588472  .00002112  00000-0  10213-3 0  9996
2 39134  64.8623 152.7760 0019952 221.5884 138.3728 15.21486424418412
BEESAT-3                
1 39135U 13015F   20318.95680491  .00001602  00000-0  86437-4 0  9998
2 39135  64.8653 178.4742 0023885 217.5811 142.3647 15.18519392417912
BEESAT-2                
1 39136U 13015G   20318.93233053  .00001464  00000-0  80711-4 0  9990
2 39136  64.8754 184.0799 0034267 264.9383  94.7832 15.17928932417803
ZACUBE-1 (TSHEPISOSAT)  
1 39417U 13066B   20319.45955982  .00000280  00000-0  41223-4 0  9998
2 39417  97.5750 309.2151 0059610 144.8345 215.6826 14.81352486377245
GOMX-1                  
1 39430U 13066Q   20319.54273741  .00000298  00000-0  62258-4 0  9999
2 39430  97.8010 249.0711 0152144  71.9077 289.8623 14.59465526371699
CUBEBUG-2 (LO-74)       
1 39440U 13066AA  20318.89851217  .00000263  00000-0  43473-4 0  9997
2 39440  97.6489 293.2790 0079106 214.2431 145.3665 14.76089914374628
FUNCUBE-1 (AO-73)       
1 39444U 13066AE  20319.23529042  .00000396  00000-0  54460-4 0  9993
2 39444  97.5676 311.3068 0058849 137.1426 223.4397 14.82221944375558
UWE-3                   
1 39446U 13066AG  20319.24046716  .00000276  00000-0  42952-4 0  9998
2 39446  97.6134 300.7241 0069769 179.9733 180.1495 14.78621807374704
SPROUT                  
1 39770U 14029E   20319.25490661  .00000964  00000-0  11115-3 0  9991
2 39770  97.9055  64.9859 0008810 188.7266 171.3807 14.87966964351331
UNISAT-6                
1 40012U 14033C   20319.14157408  .00000271  00000-0  47518-4 0  9992
2 40012  97.6920 166.6462 0057015 235.8832 123.6961 14.74183192344472
DUCHIFAT-1              
1 40021U 14033M   20318.80477968  .00000513  00000-0  57688-4 0  9998
2 40021  97.9519 251.0159 0013360 149.3759 210.8241 14.91040203348145
QB50P1                  
1 40025U 14033R   20318.89040508  .00000437  00000-0  52100-4 0  9996
2 40025  97.9194 243.1970 0012681 161.4906 198.6774 14.89234160347333
NUDT-PHONESAT           
1 40900U 15049B   20319.58269832  .00003330  00000-0  13702-3 0  9995
2 40900  97.4287 329.2777 0012718 168.0940 310.3280 15.24773604286064
ZDPS 2A                 
1 40901U 15049C   20319.59322237  .00001738  00000-0  87084-4 0  9991
2 40901  97.4638 323.3683 0012286 204.1234 270.2766 15.18649900285352
ZDPS 2B                 
1 40902U 15049D   20319.57539544  .00001693  00000-0  84903-4 0  9998
2 40902  97.4641 320.6227 0012282 201.4110 272.3794 15.18653465285322
XW-2A                   
1 40903U 15049E   20319.53862478  .00003415  00000-0  77269-4 0  9991
2 40903  97.2700   8.4873 0014678  79.7031  26.2490 15.43734720289622
KAITUO 1A               
1 40904U 15049F   20319.57941154  .00000537  00000-0  31541-4 0  9990
2 40904  97.4820 318.4058 0013183 218.3656 258.6476 15.15854401284988
2015-049G               
1 40905U 15049G   20319.58044700  .00000596  00000-0  35738-4 0  9990
2 40905  97.4920 315.5494 0014392 216.0784 260.2856 15.14690282284808
XW-2C                   
1 40906U 15049H   20319.59587438  .00001057  00000-0  57991-4 0  9990
2 40906  97.4816 318.7901 0013659 207.5569 274.0715 15.16274218285001
XW-2D                   
1 40907U 15049J   20319.56442250  .00000939  00000-0  51514-4 0  9993
2 40907  97.4804 318.4916 0013298 204.3944 271.5176 15.16531044285021
LILACSAT-2              
1 40908U 15049K   20319.53308655  .00000786  00000-0  46604-4 0  9995
2 40908  97.4977 316.6095 0014740 217.6484 258.4619 15.14163984284702
XW-2F                   
1 40910U 15049M   20319.58734383  .00001245  00000-0  63998-4 0  9990
2 40910  97.4709 321.3087 0013980 192.3193 285.2905 15.18264161285118
XW-2B                   
1 40911U 15049N   20319.55610072  .00001118  00000-0  60826-4 0  9992
2 40911  97.4811 319.1825 0013150 205.0069 272.3222 15.16455411284915
KAITUO 1B               
1 40912U 15049P   20319.54121245  .00001834  00000-0  86390-4 0  9990
2 40912  97.4488 325.5440 0014854 167.3556 310.3835 15.20700329285520
TIANWANG 1C (TW-1C)     
1 40926U 15051B   20319.53626670  .00064829  00000-0  43226-3 0  9992
2 40926  97.0636  12.8904 0003568 220.4795 250.9668 15.75180885290565
TIANWANG 1A (TW-1A)     
1 40928U 15051D   20319.54310439  .00005386  00000-0  12165-3 0  9999
2 40928  97.0977 343.7008 0010344  10.9705 141.5415 15.43552767288513
LAPAN-A2                
1 40931U 15052B   20319.56177991  .00000753  00000-0  15691-4 0  9991
2 40931   6.0037 344.9460 0013603 244.2884 115.6951 14.76650083277486
E-ST@R-II               
1 41459U 16025D   20319.55904867  .00001868  00000-0  95891-4 0  9995
2 41459  98.1178  77.5319 0164339  66.8482 295.0044 15.06946813250049
AAUSAT 4                
1 41460U 16025E   20319.59022145  .00002818  00000-0  13768-3 0  9999
2 41460  98.1178  80.4589 0152690  53.7082 307.8141 15.09484251250283
NUSAT-1 (FRESCO)        
1 41557U 16033B   20319.54528778  .00002091  00000-0  78177-4 0  9992
2 41557  97.4007  48.8049 0011681 276.6679 208.8217 15.28427780248695
BEESAT-4                
1 41619U 16040W   20319.10860255  .00002426  00000-0  10155-3 0  9993
2 41619  97.3022  14.9844 0011350  20.8719 339.2980 15.24450336232197
